<?xml version="1.0" encoding="UTF-8" standalone="yes" ?>
<gpx version="1.1" creator="svrlovers" xmlns="http://www.topografix.com/GPX/1/1" xmlns:xsi="http://www.w3.org/2001/XMLSchema-instance" xsi:schemaLocation="http://www.topografix.com/GPX/1/1 https://www.topografix.com/GPX/1/1/gpx.xsd">
  <metadata>
    <name>Percorso B (Olevano)</name>
  </metadata>
  <trk>
    <trkseg>
      <trkpt lat="41.882652" lon="12.983069"></trkpt>
      <trkpt lat="41.882675" lon="12.983471"></trkpt>
      <trkpt lat="41.882791" lon="12.984120"></trkpt>
      <trkpt lat="41.882909" lon="12.984219"></trkpt>
      <trkpt lat="41.882941" lon="12.984224"></trkpt>
      <trkpt lat="41.882984" lon="12.984310"></trkpt>
      <trkpt lat="41.882921" lon="12.984356"></trkpt>
      <trkpt lat="41.882769" lon="12.984442"></trkpt>
      <trkpt lat="41.882519" lon="12.984393"></trkpt>
      <trkpt lat="41.882423" lon="12.984434"></trkpt>
      <trkpt lat="41.882377" lon="12.984450"></trkpt>
      <trkpt lat="41.882341" lon="12.984477"></trkpt>
      <trkpt lat="41.882327" lon="12.984487"></trkpt>
      <trkpt lat="41.882198" lon="12.984353"></trkpt>
      <trkpt lat="41.882162" lon="12.984342"></trkpt>
      <trkpt lat="41.881914" lon="12.983709"></trkpt>
      <trkpt lat="41.881794" lon="12.983656"></trkpt>
      <trkpt lat="41.881563" lon="12.983581"></trkpt>
      <trkpt lat="41.881760" lon="12.984120"></trkpt>
      <trkpt lat="41.882108" lon="12.984716"></trkpt>
      <trkpt lat="41.882561" lon="12.985148"></trkpt>
      <trkpt lat="41.883292" lon="12.985343"></trkpt>
      <trkpt lat="41.883472" lon="12.985198"></trkpt>
      <trkpt lat="41.883324" lon="12.985034"></trkpt>
      <trkpt lat="41.883272" lon="12.985026"></trkpt>
      <trkpt lat="41.882996" lon="12.984895"></trkpt>
      <trkpt lat="41.882893" lon="12.984860"></trkpt>
      <trkpt lat="41.882960" lon="12.984755"></trkpt>
      <trkpt lat="41.883088" lon="12.984680"></trkpt>
      <trkpt lat="41.883002" lon="12.984737"></trkpt>
      <trkpt lat="41.883126" lon="12.984788"></trkpt>
      <trkpt lat="41.883162" lon="12.984804"></trkpt>
      <trkpt lat="41.883018" lon="12.984833"></trkpt>
      <trkpt lat="41.883286" lon="12.984680"></trkpt>
      <trkpt lat="41.883493" lon="12.984483"></trkpt>
      <trkpt lat="41.883591" lon="12.984201"></trkpt>
      <trkpt lat="41.883491" lon="12.984048"></trkpt>
      <trkpt lat="41.883209" lon="12.984153"></trkpt>
      <trkpt lat="41.883113" lon="12.983984"></trkpt>
      <trkpt lat="41.883169" lon="12.983748"></trkpt>
      <trkpt lat="41.882942" lon="12.983364"></trkpt>
      <trkpt lat="41.882758" lon="12.983144"></trkpt>
    </trkseg>
  </trk>
</gpx>
